EUTELSAT 8 WEST B       
1 40875U 15039B   26004.81452770 -.00000065  00000+0  00000+0 0  9998
2 40875   0.0632 357.5752 0004126 285.7747 106.3029  1.00271780 38013
EUTELSAT 9B             
1 41310U 16005A   26004.81790772  .00000062  00000+0  00000+0 0  9990
2 41310   0.0530  68.4048 0004974 214.0801 125.3660  1.00272726 36479
EUTELSAT 65 WEST A      
1 41382U 16014A   26004.80326096 -.00000276  00000+0  00000+0 0  9990
2 41382   0.0666 317.0795 0002514 326.9160  44.3779  1.00272554 35894
EUTELSAT 117 WEST B     
1 41589U 16038B   26004.57896622 -.00000010  00000+0  00000+0 0  9992
2 41589   0.0101 155.1716 0000215 306.0311  94.4173  1.00265363 35023
EUTELSAT 172B           
1 42741U 17029B   26004.77890748 -.00000006  00000+0  00000+0 0  9994
2 42741   0.0290 118.1970 0000286 119.5090 319.0654  1.00270806 32095
EUTELSAT 7C             
1 44334U 19034B   26004.81756104  .00000048  00000+0  00000+0 0  9999
2 44334   0.0752 180.9099 0003517  88.2493 136.5503  1.00270634  5191
EUTELSAT 5 WEST B       
1 44624U 19067A   26004.81513437 -.00000042  00000+0  00000+0 0  9992
2 44624   0.0720 329.8457 0003431 314.2726 108.7307  1.00271105 22798
EUTELSAT KONNECT        
1 45027U 20005B   26004.81756104  .00000049  00000+0  00000+0 0  9990
2 45027   0.0690  92.8760 0001646 188.4116 124.6386  1.00270256 22695
